#dP2022 10 23 12  0  0.00000000      96 __u+U ITR00 EXT  IAC
## 2233  43200.00000000   900.00000000 59875 0.5000000000000
+  117   C06C07C08C09C10C11C12C13C14C16C19C20C21C22C23C24C25
+        C26C27C28C29C30C32C33C34C35C36C37C38C39C40C41C42C43
+        C44C45C46E01E02E03E04E05E07E08E09E10E11E12E13E14E15
+        E18E19E24E25E26E27E30E31E33E34E36G01G02G03G04G05G06
+        G07G08G09G10G11G12G13G14G15G16G17G18G19G20G21G22G23
+        G24G25G26G27G28G29G30G31G32J02J03J04R01R02R03R04R05
+        R07R08R09R11R12R13R14R15R17R18R19R20R21R22R24  0  0
++        11 11  9 10 10  9  8  9  8 10  9  8  8  8  8  8  8
++         7 10 10  9 10  9  9  9 10  9  9  8 10  8 10  8  9
++         9  9 11  9  9  8  8  9  9  9  8  9  8 10  8 10  8
++         9  9 10 10  7  9  9  8  8  8  8  8  7  8  7  8  9
++         9  9  9  8  8  9  8  9  8  9  9  9  9  9  8  9  9
++        10  8  9  8  8  8  9  9  8 11  9  9  9  7  9  9 10
++         9  9  9  8  9  9  8  8 10  9 10 10  9  9  8  0  0
%c M  cc GPS ccc cccc cccc cccc cccc ccccc ccccc ccccc ccccc
%c cc cc ccc ccc cccc cccc cccc cccc ccccc ccccc ccccc ccccc
%f  0.0000000  0.000000000  0.00000000000  0.000000000000000
%f  0.0000000  0.000000000  0.00000000000  0.000000000000000
%i    0    0    0    0      0      0      0      0         0
%i    0    0    0    0      0      0      0      0         0
/* IAC                                ULTRA-RAPID PREDICTION
/* S/V CLOCKS ARE ALIGNED TO GNSS TIME                      
/* G:C1WC2W R:C1PC2P E:C1XC5X C:C2IC6I J:C1CC2S             
/* PCV:IGS14_2218 OL/AL:FES2004  NONE     YN ORB:CoN CLK:CoN
*  2022 10 24  9 45  0.00000000
PC06 -13177.502811  24011.920740  32007.376211    886.260965
PC07 -13302.734295  40096.304712   -678.970152    312.313964
PC08    631.075626  29643.441328 -29896.065949    500.333742
PC09  -1555.928752  24659.234747  34520.183234   -825.981883
PC10  -7686.806151  41070.418812  -7096.602697     79.112346
PC11   3636.570338  14896.213299 -23243.405612   -333.126725
PC12 -16294.023473  14581.851410 -17309.397622   -469.726707
PC13   7934.617032  33994.330149 -23309.860737    115.157093
PC14    603.047739  25069.201616  12306.135154    595.175853
PC16 -18281.446189  22736.374641  30528.063008    125.701566
PC19  -7472.005700 -18926.782942 -19075.909230   -924.344006
PC20   5184.845982 -26902.964689  -5235.607438    856.533061
PC21 -15682.988333  19221.756878 -12789.513742   -670.714172
PC22 -16436.082272    359.632200 -22561.739483   -833.030559
PC23  22037.271035   9797.901997 -14025.517376   -709.209027
PC24   1029.448985  21062.566764  18254.125591   -763.489708
PC25  17784.911257  21392.465320   2015.480270     14.328312
PC26 -13509.844672   9246.188082  22590.008715    -25.938573
PC27  23149.475260 -11655.220072  10338.394983     40.714577
PC28  27142.561961   -581.403232  -6432.822686     27.923290
PC29 -15257.130228 -11153.703955  20529.474043     31.058779
PC30   6131.996020 -16729.943797  21476.843059      0.684973
PC32  15575.572227 -19239.566003  12885.305755   -746.261204
PC33   7533.253568  18996.315827  19002.939439   -928.078947
PC34  -4795.492450  16717.809311 -21828.276885     23.714151
PC35 -26771.297281    475.079771   7806.351792     56.244888
PC36 -16952.640731 -22021.119966  -2578.623069   -840.168688
PC37  14609.199727  -7777.009145 -22450.761458   -609.856144
PC38  -7027.305311  25854.087995 -32491.151686     33.273095
PC39 -22471.512153  22650.302618  27484.343791     -0.694326
PC40 -19951.127010  37195.688241   2406.255992     -6.655044
PC41  16340.994803    255.002403  22662.525494   -204.384553
PC42  -5922.981491  26970.192249   4125.171909   -532.365522
PC43  14512.425895  11690.690640 -20782.522606     21.264603
PC44 -22795.990431  12470.983387 -10151.109733     91.557705
PC45 -21960.507375  -9540.114613  14359.971572    -13.678326
PC46  -2782.464371 -21780.474191 -17245.789624     -8.355673
PE01  16980.248095    869.486826 -24221.638307   -552.487889
PE02 -16965.561274   -681.689849  24251.592341    332.665162
PE03 -24759.935519   8679.443210 -13723.216570   -612.926700
PE04  20162.445243 -21288.189966  -4068.521513  -1143.425835
PE05 -14883.625441  -9322.926832 -23832.112575   -131.478275
PE07  -3478.857184  21610.473215  19926.830190   -715.795492
PE08 -20113.124880  21331.951009   4101.035493   -620.636513
PE09   3660.966221 -21587.275430 -19918.959408   -704.336687
PE10   4696.306729 -15319.291122  24883.214760   -485.878730
PE11  -7306.450859 -17863.340030  22434.560744   1646.363807
PE12  15088.793316 -10671.955211  23122.725232   -239.203562
PE13   6405.049272  17697.008115 -22840.634136    430.675999
PE14 -12205.524675 -10621.827358  18645.182566     36.680121
PE15 -15292.328679  10486.201100 -23067.888959    712.020947
PE18   7110.665286  19216.288860 -24080.834413   -824.865041
PE19  24213.133363  -6376.896642  15788.938794  -4182.499873
PE24  -3315.263674 -29267.721427  -3080.611389   -908.589564
PE25 -14772.782621 -20322.376472  15668.771076   -590.968851
PE26  24585.358033  14189.945553  -8360.571248  -1763.698252
PE27   4093.406559  29231.572578   2136.370807   -422.838179
PE30  -9563.578252  20418.312423  19166.826455   -941.726291
PE31   8964.718788 -21121.765815 -18691.179738   -506.480861
PE33  27821.237466   2856.492204   9695.474253   -454.993830
PE34 -27793.750692  -2688.316107  -9852.740705    -11.050890
PE36 -24125.736894 -14462.085432   9226.865261   -450.510782
PG01  21661.526255  14508.261533  -6255.424171    262.560767
PG02 -21713.479984 -13340.216458   7830.005808   -641.022329
PG03  11819.746272  18920.551256  14372.651060   -367.531429
PG04  14899.957959   7376.478566  20737.128590    -98.420517
PG05  -6569.529364 -25401.796029  -3849.898876   -101.596347
PG06  11668.077517 -10329.973975  21582.627105    499.989001
PG07  25010.564832   5116.815326  -7765.481730    295.459023
PG08   5658.314921  14555.164987 -21481.295189    -90.380981
PG09  21838.096623  -3611.699842  14632.153396   -278.827225
PG10 -11881.681363  13105.897531 -19555.202740     -8.844761
PG11   -442.401096 -16448.116118  20861.298216    -29.736250
PG12 -10309.544085 -20024.629633  13893.072091   -295.951805
PG13   3780.253200 -17458.405157 -19767.654244    411.859220
PG14  13561.379638 -10871.131287 -20044.437433    -91.663494
PG15  -7934.765104 -14360.384208 -21298.629070    -18.285212
PG16   -339.231658  26264.553307   1180.035082   -526.571801
PG17  23000.123329 -13143.490092  -1918.366043    671.670666
PG18 -24359.917237  -3776.489313 -10076.805286      3.517166
PG19  18661.942911 -16888.079594   7830.130152    228.006671
PG20    587.834509 -24762.464581   9907.577283    475.824689
PG21  17086.211674  15596.629997 -13080.485642    157.456895
PG22 -15811.052798  18501.234421  10845.035402    351.497169
PG23 -14955.693920   1359.515815 -21917.222502     -1.118826
PG24 -19860.991034 -14926.330823 -10288.046588     87.604097
PG25 -15087.343152  -8993.584316  19709.543384    385.597919
PG26  -5055.202312  22942.727453  11975.878364    233.563290
PG27  -6458.138219  19261.060246 -17109.945979    192.430320
PG28   9654.490950 -19884.962812 -14403.895133    324.734847
PG29 -21342.466852    723.170970  15802.532684   -562.038835
PG30  19893.345487  -4655.198601 -17012.533241   -537.140038
PG31 -11174.280998  11303.137552  21188.608769   -197.852080
PG32 -21151.474108  15884.317266    204.529174   -273.367381
PJ02 -26062.516097  25890.425313  25621.952352     -8.005532
PJ03 -32945.016513  17028.908165 -15426.891242     -3.389117
PJ04 -21669.699302  32653.161586 -10485.052766    112.105104
PR01 -14115.653175   5783.564974 -20452.674084     16.737758
PR02 -14420.558995  20269.635837  -5443.027678    -23.099537
PR03  -5739.258890  21852.207562  11815.626605     66.034471
PR04   5630.665512  11179.520662  22242.620727    162.327809
PR05  14140.950681  -5523.865898  20510.633987    101.751358
PR07   5371.646756 -21668.012256 -12361.494963     43.091109
PR08  -5807.521339 -11133.858128 -22159.136577    -67.777078
PR09   5761.454115 -11321.790143 -22088.848199     83.751403
PR11 -15025.172628 -20099.570068   4548.026085     23.694388
PR12 -14849.351576  -6145.101640  19843.157052     22.288821
PR13  -6614.789420   9844.049656  22570.963072    -28.131760
PR14   6673.178528  21682.459687  11692.915788     24.202607
PR15  15090.536025  19813.158086  -5495.572611     93.051599
PR17   -139.913340  10544.080624 -23214.821105    571.878755
PR18  17097.376357   7720.450558 -17287.530383     48.607632
PR19  25142.332692   2244.070068  -3622.316094   -208.409415
PR20  18827.246974  -6556.962635  15943.093963    -80.815066
PR21  -1697.144088 -10437.399070  23217.452357   -344.097818
PR22 -17333.509866  -8489.524041  16701.991970     14.819441
PR24 -18120.868781   7635.628896 -16242.406279    122.213576
EOF
